NORAD_CAT_ID,OBJECT_NAME,OBJECT_TYPE,EPOCH,MEAN_MOTION,ECCENTRICITY,INCLINATION,RA_OF_ASC_NODE,ARG_OF_PERICENTER,MEAN_ANOMALY,BSTAR,MEAN_MOTION_DOT,MEAN_MOTION_DDOT,TLE_LINE0,TLE_LINE1,TLE_LINE2,SEMIMAJOR_AXIS,PERIOD,APOGEE,PERIGEE,DECAYED
52845.0,STARLINK-4168,PAYLOAD,2023-03-26 12:59:11,15.08840953,0.0001156,53.2161,198.6718,69.8019,290.3097,0.00016998,2.418e-05,0.0,0 STARLINK-4168,1 52845U 22062R   23085.54110615  .00002418  00000-0  16998-3 0  9998,2 52845  53.2161 198.6718 0001156  69.8019 290.3097 15.08840953 43369,6917.877,95.437,540.542,538.943,0.0
52845.0,STARLINK-4168,PAYLOAD,2023-03-27 00:06:54,15.08836907,0.0001249,53.2153,196.5908,53.7867,306.324,0.0002599,3.851e-05,0.0,0 STARLINK-4168,1 52845U 22062R   23086.00479187  .00003851  00000-0  25990-3 0  9996,2 52845  53.2153 196.5908 0001249  53.7867 306.3240 15.08836907 43434,6917.89,95.438,540.619,538.891,0.0
52845.0,STARLINK-4168,PAYLOAD,2023-03-27 12:49:59,15.08838343,0.0001332,53.2158,194.2115,52.1259,307.9853,0.00039025,5.928e-05,0.0,0 STARLINK-4168,1 52845U 22062R   23086.53471605  .00005928  00000-0  39025-3 0  9992,2 52845  53.2158 194.2115 0001332  52.1259 307.9853 15.08838343 43023,6917.885,95.438,540.672,538.829,0.0
52845.0,STARLINK-4168,PAYLOAD,2023-03-28 06:19:13,15.08853636,0.0001257,53.2167,190.9421,54.4726,305.6383,-0.00018414,-3.218e-05,0.0,0 STARLINK-4168,1 52845U 22062R   23087.26334573 -.00003218  00000-0 -18414-3 0  9996,2 52845  53.2167 190.9421 0001257  54.4726 305.6383 15.08853636 43627,6917.839,95.437,540.573,538.834,0.0
52845.0,STARLINK-4168,PAYLOAD,2023-03-28 14:16:09,15.08847757,0.0001408,53.2175,189.4543,59.1122,301.0009,0.00012679,1.731e-05,0.0,0 STARLINK-4168,1 52845U 22062R   23087.59455122  .00001731  00000-0  12679-3 0  9999,2 52845  53.2175 189.4543 0001408  59.1122 301.0009 15.08847757 43671,6917.857,95.437,540.696,538.748,0.0
52845.0,STARLINK-4168,PAYLOAD,2023-03-29 07:45:24,15.08840714,0.0001654,53.2169,186.1849,53.9753,306.1392,7.5795e-05,9.18e-06,0.0,0 STARLINK-4168,1 52845U 22062R   23088.32319717  .00000918  00000-0  75795-4 0  9995,2 52845  53.2169 186.1849 0001654  53.9753 306.1392 15.08840714 43781,6917.878,95.438,540.887,538.599,0.0
52845.0,STARLINK-4168,PAYLOAD,2023-03-29 12:31:33,15.088443,0.0001368,53.2172,185.2904,73.5937,286.5205,3.0197e-05,1.93e-06,0.0,0 STARLINK-4168,1 52845U 22062R   23088.52191419  .00000193  00000-0  30197-4 0  9996,2 52845  53.2172 185.2904 0001368  73.5937 286.5205 15.08844300 43320,6917.867,95.437,540.679,538.786,0.0
52845.0,STARLINK-4168,PAYLOAD,2023-03-29 14:06:56,15.08847534,0.0001303,53.2168,184.9931,59.8616,300.2506,6.8041e-05,7.95e-06,0.0,0 STARLINK-4168,1 52845U 22062R   23088.58815143  .00000795  00000-0  68041-4 0  9996,2 52845  53.2168 184.9931 0001303  59.8616 300.2506 15.08847534 43332,6917.857,95.437,540.624,538.821,0.0
52845.0,STARLINK-4168,PAYLOAD,2023-03-30 12:22:20,15.08841191,9.94e-05,53.2157,180.8303,63.6382,296.4712,0.00012699,1.734e-05,0.0,0 STARLINK-4168,1 52845U 22062R   23089.51551230  .00001734  00000-0  12699-3 0  9995,2 52845  53.2157 180.8303 0000994  63.6382 296.4712 15.08841191 43963,6917.877,95.437,540.429,539.054,0.0
52845.0,STARLINK-4168,PAYLOAD,2023-03-31 05:51:35,15.08825738,0.0001025,53.2183,177.562,62.1838,297.9258,4.5301e-05,4.33e-06,0.0,0 STARLINK-4168,1 52845U 22062R   23090.24416318  .00000433  00000-0  45301-4 0  9996,2 52845  53.2183 177.5620 0001025  62.1838 297.9258 15.08825738 44076,6917.924,95.438,540.498,539.08,0.0
52845.0,STARLINK-4168,PAYLOAD,2023-03-31 12:13:06,15.0884555,0.0001075,53.2178,176.3717,78.3401,281.7711,0.00013714,1.896e-05,0.0,0 STARLINK-4168,1 52845U 22062R   23090.50910828  .00001896  00000-0  13714-3 0  9996,2 52845  53.2178 176.3717 0001075  78.3401 281.7711 15.08845550 44118,6917.863,95.437,540.472,538.985,0.0
52845.0,STARLINK-4168,PAYLOAD,2023-04-01 05:42:22,15.08833107,0.0001263,53.217,173.1016,97.7279,262.3856,3.0248e-05,1.93e-06,0.0,0 STARLINK-4168,1 52845U 22062R   23091.23775782  .00000193  00000-0  30248-4 0  9996,2 52845  53.2170 173.1016 0001263  97.7279 262.3856 15.08833107 44226,6917.901,95.438,540.64,538.893,0.0
52845.0,STARLINK-4168,PAYLOAD,2023-04-01 12:03:54,15.08839127,0.0001195,53.2166,171.912,118.4704,241.6409,3.0713e-05,2.01e-06,0.0,0 STARLINK-4168,1 52845U 22062R   23091.50271543  .00000201  00000-0  30713-4 0  9999,2 52845  53.2166 171.9120 0001195 118.4704 241.6409 15.08839127 43772,6917.883,95.438,540.575,538.921,0.0
52845.0,STARLINK-4168,PAYLOAD,2023-04-02 11:54:41,15.08850779,0.000129,53.2152,167.4468,115.0745,245.0381,0.00021226,3.093e-05,0.0,0 STARLINK-4168,1 52845U 22062R   23092.49631223  .00003093  00000-0  21226-3 0  9993,2 52845  53.2152 167.4468 0001290 115.0745 245.0381 15.08850779 43926,6917.847,95.437,540.605,538.82,0.0
52845.0,STARLINK-4168,PAYLOAD,2023-04-02 15:05:27,15.08852455,0.0001288,53.2149,166.8504,119.0639,241.0482,0.00022461,3.29e-05,0.0,0 STARLINK-4168,1 52845U 22062R   23092.62879051  .00003290  00000-0  22461-3 0  9992,2 52845  53.2149 166.8504 0001288 119.0639 241.0482 15.08852455 44437,6917.842,95.437,540.598,538.816,0.0
52845.0,STARLINK-4168,PAYLOAD,2023-04-02 21:27:00,15.08844099,0.0001084,53.2147,165.6581,87.8354,272.2762,9.4436e-05,1.216e-05,0.0,0 STARLINK-4168,1 52845U 22062R   23092.89375382  .00001216  00000-0  94436-4 0  9997,2 52845  53.2147 165.6581 0001084  87.8354 272.2762 15.08844099 43988,6917.868,95.437,540.483,538.983,0.0
52845.0,STARLINK-4168,PAYLOAD,2023-04-03 05:23:56,15.08831224,0.000136,53.2153,164.1767,121.3722,238.7404,7.9004e-05,9.69e-06,0.0,0 STARLINK-4168,1 52845U 22062R   23093.22496325  .00000969  00000-0  79004-4 0  9994,2 52845  53.2153 164.1767 0001360 121.3722 238.7404 15.08831224 44522,6917.907,95.438,540.713,538.831,0.0
52845.0,STARLINK-4168,PAYLOAD,2023-04-03 13:20:52,15.08835135,0.0001286,53.2162,162.69,121.0705,239.0414,0.00016507,2.34e-05,0.0,0 STARLINK-4168,1 52845U 22062R   23093.55616283  .00002340  00000-0  16507-3 0  9990,2 52845  53.2162 162.6900 0001286 121.0705 239.0414 15.08835135 44080,6917.895,95.438,540.65,538.871,0.0
52845.0,STARLINK-4168,PAYLOAD,2023-04-03 14:56:15,15.08839622,0.0001356,53.2157,162.3923,120.4318,239.6809,0.00014817,2.071e-05,0.0,0 STARLINK-4168,1 52845U 22062R   23093.62239962  .00002071  00000-0  14817-3 0  9996,2 52845  53.2157 162.3923 0001356 120.4318 239.6809 15.08839622 44581,6917.882,95.438,540.685,538.808,0.0
52845.0,STARLINK-4168,PAYLOAD,2023-04-03 21:17:47,15.08841285,0.0001058,53.2147,161.2031,115.6859,244.4242,0.00010323,1.356e-05,0.0,0 STARLINK-4168,1 52845U 22062R   23093.88735855  .00001356  00000-0  10323-3 0  9999,2 52845  53.2147 161.2031 0001058 115.6859 244.4242 15.08841285 44137,6917.876,95.437,540.473,539.01,0.0
52845.0,STARLINK-4168,PAYLOAD,2023-04-04 11:36:15,15.0884365,0.0001209,53.2155,158.5276,115.4721,244.6397,2.153e-05,5.5e-07,0.0,0 STARLINK-4168,1 52845U 22062R   23094.48351751  .00000055  00000-0  21530-4 0  9993,2 52845  53.2155 158.5276 0001209 115.4721 244.6397 15.08843650 44221,6917.869,95.437,540.571,538.898,0.0
52845.0,STARLINK-4168,PAYLOAD,2023-04-05 05:05:30,15.08836037,0.0001364,53.2165,155.2569,113.3814,246.7322,6.0261e-05,6.71e-06,0.0,0 STARLINK-4168,1 52845U 22062R   23095.21216301  .00000671  00000-0  60261-4 0  9994,2 52845  53.2165 155.2569 0001364 113.3814 246.7322 15.08836037 44821,6917.893,95.438,540.701,538.814,0.0
52845.0,STARLINK-4168,PAYLOAD,2023-04-05 11:27:03,15.08841975,0.0001221,53.2166,154.0668,113.8507,246.2613,7.4314e-05,8.95e-06,0.0,0 STARLINK-4168,1 52845U 22062R   23095.47712227  .00000895  00000-0  74314-4 0  9992,2 52845  53.2166 154.0668 0001221 113.8507 246.2613 15.08841975 44370,6917.874,95.437,540.584,538.895,0.0
52845.0,STARLINK-4168,PAYLOAD,2023-04-05 20:59:22,15.08841435,0.0001193,53.2164,152.2817,93.9631,266.1497,4.4039e-05,4.13e-06,0.0,0 STARLINK-4168,1 52845U 22062R   23095.87456377  .00000413  00000-0  44039-4 0  9994,2 52845  53.2164 152.2817 0001193  93.9631 266.1497 15.08841435 44437,6917.876,95.437,540.566,538.916,0.0
52845.0,STARLINK-4168,PAYLOAD,2023-04-06 08:07:04,15.08838516,0.0001215,53.2171,150.2013,88.5296,271.5835,9.6283e-05,1.245e-05,0.0,0 STARLINK-4168,1 52845U 22062R   23096.33824525  .00001245  00000-0  96283-4 0  9992,2 52845  53.2171 150.2013 0001215  88.5296 271.5835 15.08838516 44996,6917.885,95.438,540.59,538.909,0.0
52845.0,STARLINK-4168,PAYLOAD,2023-04-06 11:17:50,15.08827376,0.0001666,53.217,149.6063,95.7926,264.3256,0.00030331,4.541e-05,0.0,0 STARLINK-4168,1 52845U 22062R   23096.47072850  .00004541  00000-0  30331-3 0  9996,2 52845  53.2170 149.6063 0001666  95.7926 264.3256 15.08827376 44520,6917.919,95.438,540.937,538.631,0.0
52845.0,STARLINK-4168,PAYLOAD,2023-04-06 20:50:09,15.0884107,0.0001235,53.2166,147.8219,84.9294,275.1839,9.2194e-05,1.18e-05,0.0,0 STARLINK-4168,1 52845U 22062R   23096.86816245  .00001180  00000-0  92194-4 0  9995,2 52845  53.2166 147.8219 0001235  84.9294 275.1839 15.08841070 44588,6917.877,95.437,540.596,538.888,0.0
52845.0,STARLINK-4168,PAYLOAD,2023-04-07 09:33:14,15.08848278,0.0001493,53.2173,145.444,86.9036,273.2127,1.5856e-05,-3.6e-07,0.0,0 STARLINK-4168,1 52845U 22062R   23097.39807990 -.00000036  00000-0  15856-4 0  9991,2 52845  53.2173 145.4440 0001493  86.9036 273.2127 15.08848278 45158,6917.855,95.437,540.753,538.687,0.0
52845.0,STARLINK-4168,PAYLOAD,2023-04-08 03:02:28,15.08840237,0.0001501,53.216,142.173,76.6673,283.4487,5.0447e-05,5.15e-06,0.0,0 STARLINK-4168,1 52845U 22062R   23098.12672317  .00000515  00000-0  50447-4 0  9992,2 52845  53.2160 142.1730 0001501  76.6673 283.4487 15.08840237 45264,6917.88,95.438,540.783,538.706,0.0
52845.0,STARLINK-4168,PAYLOAD,2023-04-08 09:24:01,15.08848586,0.0001594,53.2168,140.9831,87.7107,272.4068,-7.6251e-05,-1.502e-05,0.0,0 STARLINK-4168,1 52845U 22062R   23098.39168049 -.00001502  00000-0 -76251-4 0  9993,2 52845  53.2168 140.9831 0001594  87.7107 272.4068 15.08848586 44815,6917.854,95.437,540.822,538.616,0.0
